ONEWEB-0128             
1 47274U 20100S   26016.24242273  .00000095  00000+0  22797-3 0  9991
2 47274  87.8917  20.8650 0001528  81.4000 278.7302 13.12441103244814
ONEWEB-0129             
1 47275U 20100T   26016.29833976  .00000365  00000+0  97970-3 0  9998
2 47275  87.8929  20.8120 0001529 130.2088 229.9175 13.12442725244750
ONEWEB-0130             
1 47276U 20100U   26016.24919433 -.00000075  00000+0 -24395-3 0  9998
2 47276  87.8928  20.8159 0001643  90.2526 269.8791 13.12443511244718
ONEWEB-0131             
1 47277U 20100V   26016.24581903  .00000056  00000+0  12007-3 0  9990
2 47277  87.8928  20.8470 0001720  88.7718 271.3607 13.12441166244758
ONEWEB-0132             
1 47278U 20100W   26016.27458889 -.00000246  00000+0 -71927-3 0  9999
2 47278  87.8923  20.8423 0001724  86.1605 273.9721 13.12441959244657
ONEWEB-0133             
1 47279U 20100X   26016.29140481  .00000296  00000+0  78727-3 0  9996
2 47279  87.8922  20.8004 0001654  83.9670 276.1647 13.12445030244815
ONEWEB-0134             
1 47280U 20100Y   26016.26105771 -.00000401  00000+0 -11508-2 0  9991
2 47280  87.8929  20.8025 0001482  89.2557 270.8741 13.12443907244782
ONEWEB-0135             
1 47281U 20100Z   26016.30850679  .00000489  00000+0  13229-2 0  9997
2 47281  87.8926  20.8325 0001439  84.1854 275.9439 13.12442981244814
